STARLINK-4656           
1 53745U 22107AX  25232.59834276  .00000643  00000+0  58501-4 0  9999
2 53745  53.2166  86.9817 0001325  90.3507 269.7637 15.08842735164232
STARLINK-4589           
1 53746U 22107AY  25232.59095027  .00003036  00000+0  20864-3 0  9992
2 53746  53.2175  86.9360 0001404  95.2235 264.8918 15.08862923164235
STARLINK-4612           
1 53750U 22107BC  25232.60571212  .00000003  00000+0  18285-4 0  9990
2 53750  53.2172  87.0292 0001422  88.6870 271.4285 15.08841256164242
STARLINK-4718           
1 53773U 22111A   25232.36464166  .00001410  00000+0  10662-3 0  9995
2 53773  53.2163 107.8236 0001617  74.2850 285.8320 15.08851331163457
STARLINK-4719           
1 53774U 22111B   25232.36095546 -.00001221  00000+0 -58631-4 0  9999
2 53774  53.2169 107.8005 0001329  82.0048 278.1095 15.08843043163314
STARLINK-4722           
1 53775U 22111C   25232.32511136  .00002819  00000+0  19504-3 0  9991
2 53775  53.2162  98.3153 0001152  88.2420 271.8704 15.08852619162485
STARLINK-4664           
1 53777U 22111E   25231.92030702 -.00001290  00000+0 -62949-4 0  9999
2 53777  53.2193 100.0505 0001524 123.1141 236.9998 15.08846756163231
STARLINK-4709           
1 53778U 22111F   25232.34483525  .00000400  00000+0  43197-4 0  9996
2 53778  53.2162 102.7194 0001199  91.5634 268.5495 15.08838873163238
STARLINK-4706           
1 53779U 22111G   25231.91662274 -.00000178  00000+0  69178-5 0  9990
2 53779  53.2179 100.0343 0001383  91.0125 269.1025 15.08838602163235
STARLINK-4678           
1 53780U 22111H   25232.32143595  .00000050  00000+0  21247-4 0  9990
2 53780  53.2165  98.2938 0001340  93.0454 267.0691 15.08836584162489
STARLINK-4462           
1 53781U 22111J   25232.36923126  .00001191  00000+0  92892-4 0  9992
2 53781  53.2165  97.8826 0001355 119.6816 240.4311 15.08853172163302
STARLINK-4679           
1 53782U 22111K   25231.91294160 -.00000829  00000+0 -33961-4 0  9993
2 53782  53.2171 100.0107 0001454  83.5556 276.5602 15.08846861163231
STARLINK-4536           
1 53783U 22111L   25232.36187662  .00000252  00000+0  33926-4 0  9991
2 53783  53.2172  97.8387 0001388  85.4264 274.6887 15.08842900163301
STARLINK-4687           
1 53784U 22111M   25231.90925044  .00000291  00000+0  36349-4 0  9990
2 53784  53.2170  99.9878 0001386  87.2233 272.8918 15.08841864163237
STARLINK-4631           
1 53786U 22111P   25232.60566426  .02103185  11878-4  85029-3 0  9991
2 53786  53.2075  46.5101 0011484 297.7112 181.2964 16.22585252163231
STARLINK-4743           
1 53787U 22111Q   25232.35450943  .00000953  00000+0  77933-4 0  9993
2 53787  53.2167  97.7883 0001300  90.6135 269.5006 15.08843683163303
STARLINK-4666           
1 53789U 22111S   25232.60841783  .00000321  00000+0  38245-4 0  9991
2 53789  53.2176  96.5328 0001465  83.5726 276.5433 15.08837319163339
STARLINK-4734           
1 53790U 22111T   25231.89451448  .00000029  00000+0  19888-4 0  9995
2 53790  53.2173  99.8965 0001245  90.8853 269.2282 15.08841822163233
STARLINK-4739           
1 53792U 22111V   25232.07217017 -.00000183  00000+0  65730-5 0  9990
2 53792  53.2172  99.5667 0001362  87.8490 272.2658 15.08837361163248
STARLINK-4728           
1 53793U 22111W   25232.61578621  .00000099  00000+0  24336-4 0  9993
2 53793  53.2168  96.5739 0001260  89.0172 271.0964 15.08838209163338
STARLINK-4730           
1 53794U 22111X   25232.35546696 -.00000113  00000+0  10975-4 0  9994
2 53794  53.2166  97.7920 0001288  86.4869 273.6271 15.08840809163299
STARLINK-4742           
1 53795U 22111Y   25232.60473150 -.00000109  00000+0  11242-4 0  9990
2 53795  53.2178  96.5085 0001472  89.0854 271.0307 15.08836267163330
STARLINK-4721           
1 53796U 22111Z   25232.58335648  .00610685  16322-3  16177-2 0  9990
2 53796  53.1671 350.6148 0013375 332.1093 305.0344 15.93961932  6005
STARLINK-4723           
1 53797U 22111AA  25232.32872083  .00001244  00000+0  96210-4 0  9997
2 53797  53.2171  97.6305 0001407  91.8200 268.2953 15.08839532163283
STARLINK-4712           
1 53798U 22111AB  25232.33240159 -.00000029  00000+0  16265-4 0  9995
2 53798  53.2164  97.6493 0001268  89.7885 270.3253 15.08835909163285
STARLINK-4710           
1 53799U 22111AC  25232.30857869  .00000555  00000+0  52978-4 0  9999
2 53799  53.2172  88.2271 0001318  91.7544 268.3599 15.08838973163415
STARLINK-4720           
1 53800U 22111AD  25232.29655949  .00000711  00000+0  62751-4 0  9999
2 53800  53.2170  88.1565 0001569  92.8247 267.2925 15.08842899163414
STARLINK-4715           
1 53801U 22111AE  25232.60934932 -.00000555  00000+0 -16783-4 0  9999
2 53801  53.2168  86.5576 0001653  74.7936 285.3238 15.08827988163469
STARLINK-4726           
1 53802U 22111AF  25231.82551210  .00000065  00000+0  22168-4 0  9995
2 53802  53.2166  90.1923 0001432  99.2830 260.8324 15.08837638163349
STARLINK-4727           
1 53803U 22111AG  25232.56843474 -.00000310  00000+0 -13679-5 0  9997
2 53803  53.2176  72.0313 0001371  92.4571 267.6578 15.08838274163660
STARLINK-4729           
1 53804U 22111AH  25232.54636086 -.00000581  00000+0 -18436-4 0  9990
2 53804  53.2175  81.8745 0001388  88.9101 271.2051 15.08835849162711
STARLINK-4763           
1 53805U 22111AJ  25232.57675832  .00000124  00000+0  25915-4 0  9997
2 53805  53.2180  72.0782 0001456  90.4385 269.6774 15.08839709163666
STARLINK-4768           
1 53806U 22111AK  25232.55000960  .00000377  00000+0  41782-4 0  9990
2 53806  53.2162  71.9177 0001373  86.5119 273.6030 15.08842496163669
STARLINK-4738           
1 53819U 22114B   25231.92487392 -.00000112  00000+0  11041-4 0  9998
2 53819  53.2172 129.7553 0001338  89.0637 271.0509 15.08841459162376
STARLINK-4758           
1 53820U 22114C   25232.42171361  .00000597  00000+0  55608-4 0  9995
2 53820  53.2171 127.8686 0001289  82.2664 277.8474 15.08843924162445
STARLINK-4752           
1 53821U 22114D   25229.92053698  .13890729  12125-4  31360-2 0  9990
2 53821  53.2098  43.4145 0007031 306.4161 206.8922 16.29348636162861
STARLINK-4748           
1 53823U 22114F   25232.59326715 -.00000157  00000+0  82123-5 0  9997
2 53823  53.2178  81.8641 0001416  84.6597 275.4557 15.08837581163100
STARLINK-4757           
1 53824U 22114G   25232.41057467  .00000190  00000+0  30033-4 0  9992
2 53824  53.2171 127.1028 0001312  85.7730 274.3412 15.08842214162367
STARLINK-4751           
1 53825U 22114H   25232.41434804  .00000510  00000+0  50155-4 0  9990
2 53825  53.2170 127.8200 0001756  74.6073 285.5113 15.08837022162447
STARLINK-4756           
1 53826U 22114J   25231.93224023 -.00002062  00000+0 -11148-3 0  9991
2 53826  53.2185 129.7915 0001498  94.0643 266.0520 15.08844807161837
STARLINK-4764           
1 53827U 22114K   25232.40697678  .00000048  00000+0  21115-4 0  9991
2 53827  53.2175 127.7767 0001467  89.1658 270.9502 15.08837205162443
STARLINK-4760           
1 53828U 22114L   25231.92855675  .00000049  00000+0  21143-4 0  9993
2 53828  53.2176 129.7695 0001437  91.4493 268.6664 15.08838422162374
STARLINK-4759           
1 53829U 22114M   25232.40328862  .00000099  00000+0  24327-4 0  9993
2 53829  53.2166 127.7556 0001294  84.2558 275.8581 15.08840605162443
STARLINK-4761           
1 53830U 22114N   25231.92119065 -.00000598  00000+0 -19509-4 0  9996
2 53830  53.2168 129.7267 0001413  86.1008 274.0146 15.08837428162371
STARLINK-4649           
1 53831U 22114P   25231.93592872 -.00000210  00000+0  48885-5 0  9999
2 53831  53.2179 129.8131 0001549  96.0995 264.0174 15.08837556161832
STARLINK-4747           
1 53832U 22114Q   25232.44373649 -.00000405  00000+0 -73699-5 0  9994
2 53832  53.2170 127.2994 0001399  87.8359 272.2793 15.08844671162451
STARLINK-4771           
1 53833U 22114R   25231.92582766  .00001086  00000+0  86362-4 0  9993
2 53833  53.2171 129.7559 0001375  82.4771 277.6378 15.08830720162379
STARLINK-4737           
1 53834U 22114S   25232.43636702  .00000323  00000+0  38350-4 0  9998
2 53834  53.2174 127.2542 0001439  84.1999 275.9157 15.08844483162456
STARLINK-4783           
1 53835U 22114T   25232.44742389 -.00000626  00000+0 -21227-4 0  9992
2 53835  53.2173 127.3208 0001375  92.7657 267.3492 15.08838016162453
STARLINK-4778           
1 53836U 22114U   25232.41895667  .00000150  00000+0  27490-4 0  9996
2 53836  53.2168 117.8626 0001225 103.6410 256.4719 15.08831428162584
STARLINK-4776           
1 53837U 22114V   25232.44004933  .00000434  00000+0  45324-4 0  9999
2 53837  53.2174 127.2758 0001428  89.2377 270.8779 15.08844382162454
STARLINK-4773           
1 53838U 22114W   25232.41526613  .00000161  00000+0  28236-4 0  9991
2 53838  53.2175 117.8478 0001436  85.2756 274.8400 15.08843865162580
STARLINK-4784           
1 53839U 22114X   25232.42263957  .00002140  00000+0  15252-3 0  9994
2 53839  53.2172 117.8942 0001448  88.1829 271.9329 15.08831418162589
STARLINK-4766           
1 53840U 22114Y   25232.40517805  .00000178  00000+0  29285-4 0  9999
2 53840  53.2163 117.7825 0001331  87.2483 272.8661 15.08837129162581
STARLINK-4750           
1 53841U 22114Z   25232.41158528 -.00001298  00000+0 -63475-4 0  9999
2 53841  53.2171 117.8230 0001398  90.3682 269.7470 15.08834622162589
STARLINK-4754           
1 53842U 22114AA  25232.39684559  .00000766  00000+0  66220-4 0  9993
2 53842  53.2166 117.7306 0001280  83.9215 276.1923 15.08841027162589
STARLINK-4769           
1 53843U 22114AB  25232.40790516  .00001401  00000+0  10606-3 0  9990
2 53843  53.2173 117.8014 0001295  82.0331 278.0808 15.08845939162589
STARLINK-4745           
1 53844U 22114AC  25232.38947284 -.00001430  00000+0 -71745-4 0  9990
2 53844  53.2173 117.6876 0001309  85.3509 274.7632 15.08845642162582
STARLINK-4753           
1 53845U 22114AD  25231.93685033  .00000270  00000+0  35058-4 0  9998
2 53845  53.2171 119.8550 0001321  87.2625 272.8518 15.08843126162518
